{
  "norad_id": 66984,
  "name": "STARLINK-35591",
  "history": [
    {
      "epoch": "2026-03-28T20:15:59.837184Z",
      "apogee_km": 485.74811388154285,
      "perigee_km": 480.1961043904312,
      "latitude_deg": -3.961870621282316e-05,
      "longitude_deg": 145.30077966672988,
      "height_km": 481.4397339131798,
      "semi_major_axis_km": 6861.109109135987,
      "eccentricity": 0.0004046,
      "inclination_deg": 42.993,
      "raan_deg": 275.5592,
      "arg_perigee_deg": 62.0136,
      "mean_anomaly_deg": 298.1124,
      "mean_motion_rev_day": 15.27605711
    }
  ]
}